{
    "links": {
        "self": "http://www.neowsapp.com/rest/v1/neo/54054707?api_key=iIulBulltgU6a56xZRHN4H3l9WmuAYTsLGpBGhQ2"
    },
    "id": "54054707",
    "neo_reference_id": "54054707",
    "name": "(2020 SL6)",
    "designation": "2020 SL6",
    "nasa_jpl_url": "http://ssd.jpl.nasa.gov/sbdb.cgi?sstr=54054707",
    "absolute_magnitude_h": 27.815,
    "estimated_diameter": {
        "kilometers": {
            "estimated_diameter_min": 0.0072703443,
            "estimated_diameter_max": 0.016256984
        },
        "meters": {
            "estimated_diameter_min": 7.2703442745,
            "estimated_diameter_max": 16.2569840177
        },
        "miles": {
            "estimated_diameter_min": 0.0045175811,
            "estimated_diameter_max": 0.0101016184
        },
        "feet": {
            "estimated_diameter_min": 23.8528363096,
            "estimated_diameter_max": 53.3365634445
        }
    },
    "is_potentially_hazardous_asteroid": false,
    "close_approach_data": [
        {
            "close_approach_date": "2020-09-23",
            "close_approach_date_full": "2020-Sep-23 04:21",
            "epoch_date_close_approach": 1600834860000,
            "relative_velocity": {
                "kilometers_per_second": "13.3323870103",
                "kilometers_per_hour": "47996.5932372276",
                "miles_per_hour": "29823.2165034318"
            },
            "miss_distance": {
                "astronomical": "0.0052508117",
                "lunar": "2.0425657513",
                "kilometers": "785510.246091079",
                "miles": "488093.4337277302"
            },
            "orbiting_body": "Moon"
        },
        {
            "close_approach_date": "2020-09-23",
            "close_approach_date_full": "2020-Sep-23 08:39",
            "epoch_date_close_approach": 1600850340000,
            "relative_velocity": {
                "kilometers_per_second": "14.0968409112",
                "kilometers_per_hour": "50748.6272802991",
                "miles_per_hour": "31533.2234342503"
            },
            "miss_distance": {
                "astronomical": "0.0056355059",
                "lunar": "2.1922117951",
                "kilometers": "843059.679012433",
                "miles": "523852.9931522554"
            },
            "orbiting_body": "Earth"
        }
    ],
    "orbital_data": {
        "orbit_id": "1",
        "orbit_determination_date": "2020-09-28 12:42:05",
        "first_observation_date": "2020-09-27",
        "last_observation_date": "2020-09-28",
        "data_arc_in_days": 1,
        "observations_used": 11,
        "orbit_uncertainty": "9",
        "minimum_orbit_intersection": ".00520944",
        "jupiter_tisserand_invariant": "3.001",
        "epoch_osculation": "2459120.5",
        "eccentricity": ".6728508763203676",
        "semi_major_axis": "2.683825043817819",
        "inclination": "1.458377482480977",
        "ascending_node_longitude": "11.97710468011021",
        "orbital_period": "1605.941527746512",
        "perihelion_distance": ".8780110111944508",
        "perihelion_argument": "301.763857425605",
        "aphelion_distance": "4.489639076441188",
        "perihelion_time": "2459082.831483624201",
        "mean_anomaly": "8.444059550733597",
        "mean_motion": ".2241675638746068",
        "equinox": "J2000",
        "orbit_class": {
            "orbit_class_type": "APO",
            "orbit_class_description": "Near-Earth asteroid orbits which cross the Earth’s orbit similar to that of 1862 Apollo",
            "orbit_class_range": "a (semi-major axis) > 1.0 AU; q (perihelion) < 1.017 AU"
        }
    },
    "is_sentry_object": false
}